{
  "type": "FeatureCollection",
  "name": "foraging-spots",
  "note": "Lucian's foraging map — source of truth. Each feature: geometry Point [lon,lat]; properties: name, category, species, season, location, notes, added, photos[]. Optional `plant` = a plant slug (filename in src/content/plants/) that links this pin to its field-guide entry both ways; leave it out if no guide exists yet.",
  "features": [
    {
      "type": "Feature",
      "geometry": {
        "type": "Point",
        "coordinates": [
          -73.562631,
          45.469108
        ]
      },
      "properties": {
        "name": "Crabapple tree",
        "category": "tree",
        "species": "crabapple (Malus sp.)",
        "plant": "crabapple",
        "season": "ripe mid-July",
        "location": "Boulevard Gaétan-Laberge, Verdun",
        "notes": "Photographed Jul 10; small dark-red pomes.",
        "added": "2026-07-24",
        "photos": [
          "crabapple-tree-1.jpg"
        ]
      }
    },
    {
      "type": "Feature",
      "geometry": {
        "type": "Point",
        "coordinates": [
          -73.560608,
          45.462978
        ]
      },
      "properties": {
        "name": "Saskatoon berry bush",
        "category": "berries",
        "species": "saskatoon / serviceberry (Amelanchier)",
        "plant": "serviceberry",
        "season": "ripe late June–early July",
        "location": "Verdun (near riverfront)",
        "notes": "Photographed Jul 4; red pomes with star-crown tip.",
        "added": "2026-07-24",
        "photos": [
          "saskatoon-berry-bush-1.jpg"
        ]
      }
    },
    {
      "type": "Feature",
      "geometry": {
        "type": "Point",
        "coordinates": [
          -73.572358,
          45.450833
        ]
      },
      "properties": {
        "name": "Crabapple (Verdun/Beatty)",
        "category": "tree",
        "species": "crabapple (Malus sp.)",
        "plant": "crabapple",
        "season": "late summer/fall",
        "location": "Rue de Verdun & Beatty, Verdun",
        "notes": "Loaded crabapple at the street crossing, by the bike-path sign.",
        "added": "2026-07-24",
        "photos": [
          "crabapple-verdun-beatty-1.jpg"
        ]
      }
    },
    {
      "type": "Feature",
      "geometry": {
        "type": "Point",
        "coordinates": [
          -73.564744,
          45.453278
        ]
      },
      "properties": {
        "name": "Staghorn sumac",
        "category": "tree",
        "species": "staghorn sumac (Rhus typhina)",
        "plant": "staghorn-sumac",
        "season": "drupes ripe Aug–Sept (usable into fall)",
        "location": "Verdun (near riverfront)",
        "notes": "Photographed Jul 27; upright dark-red fuzzy drupe clusters. Steep clusters in cold water for pink 'sumac-ade'; also ground as a tart spice. Don't confuse with poison sumac (white drooping berries, wet ground).",
        "added": "2026-07-27",
        "photos": [
          "staghorn-sumac-1.jpg"
        ]
      }
    },
    {
      "type": "Feature",
      "geometry": {
        "type": "Point",
        "coordinates": [
          -73.562222,
          45.459147
        ]
      },
      "properties": {
        "name": "Lamb's quarters",
        "category": "greens",
        "species": "lamb's quarters (Chenopodium album)",
        "plant": "lambs-quarters",
        "season": "leaves best late spring–summer, before flowering",
        "location": "Verdun (near riverfront)",
        "notes": "Photographed Jul 27; mealy-white new growth, toothed diamond-shaped leaves. Cook like spinach (mild oxalates — eat cooked in quantity). Wild relative of quinoa.",
        "added": "2026-07-27",
        "photos": [
          "lambs-quarters-1.jpg"
        ]
      }
    },
    {
      "type": "Feature",
      "geometry": {
        "type": "Point",
        "coordinates": [
          -73.565147,
          45.454369
        ]
      },
      "properties": {
        "name": "Crabapple (Verdun park)",
        "category": "tree",
        "species": "crabapple (Malus sp.)",
        "plant": "crabapple",
        "season": "late summer/fall",
        "location": "Verdun (park bench near footpath)",
        "notes": "Photographed Jul 29; mature tree loaded with small red pomes, ~2 cm. Tart raw — best cooked into jelly (high pectin), sauce, or fruit leather.",
        "added": "2026-07-29",
        "photos": [
          "crabapple-verdun-park-1.jpg"
        ]
      }
    },
    {
      "type": "Feature",
      "geometry": {
        "type": "Point",
        "coordinates": [
          -73.544075,
          45.531549
        ]
      },
      "properties": {
        "name": "Apple trees (bike path)",
        "category": "tree",
        "species": "apple (Malus domestica)",
        "plant": "apple",
        "season": "ripe now (windfalls dropping); holds into fall",
        "location": "By the bike path (a few young trees lined up)",
        "notes": "Photographed Jul 30; a row of young apple trees right beside the bike path. Ripe now — apples on the ground below. Full-size domestic apple; grab off the tree, cook the bruised windfalls.",
        "added": "2026-07-30",
        "photos": [
          "apple-bike-path-1.jpg",
          "apple-bike-path-2.jpg"
        ]
      }
    },
    {
      "type": "Feature",
      "geometry": {
        "type": "Point",
        "coordinates": [
          -73.577094,
          45.409358
        ]
      },
      "properties": {
        "name": "Rowan / Mountain-ash (LaSalle)",
        "category": "tree",
        "species": "rowan / European mountain-ash (Sorbus aucuparia)",
        "plant": "rowan",
        "season": "berries Aug–fall; best after first frost, hold on the tree into winter",
        "location": "LaSalle (beside a paved path)",
        "notes": "Photographed Aug 4; small tree loaded with flat-topped clusters of orange-red pomes, pinnate serrated leaflets. Cook-don't-graze: raw is bitter/irritating, but cooked (ideally after a frost) makes a classic tart rowan jelly. High pectin.",
        "added": "2026-08-04",
        "photos": [
          "rowan-1.jpg",
          "rowan-2.jpg"
        ]
      }
    },
    {
      "type": "Feature",
      "geometry": {
        "type": "Point",
        "coordinates": [
          -73.571553,
          45.453447
        ]
      },
      "properties": {
        "name": "Black chokeberry (aronia) — west",
        "category": "berries",
        "species": "black chokeberry (Aronia melanocarpa)",
        "plant": "aronia",
        "season": "ripe Aug–Sep",
        "location": "Verdun",
        "notes": "Photographed Aug 4; glossy toothed leaves, purple-black star-tipped pomes. Astringent raw — cook/juice. Ripe now.",
        "added": "2026-08-04",
        "photos": [
          "aronia-chokeberry-1.jpg",
          "aronia-chokeberry-2.jpg"
        ]
      }
    },
    {
      "type": "Feature",
      "geometry": {
        "type": "Point",
        "coordinates": [
          -73.568925,
          45.454147
        ]
      },
      "properties": {
        "name": "Black chokeberry (aronia) — east",
        "category": "berries",
        "species": "black chokeberry (Aronia melanocarpa)",
        "plant": "aronia",
        "season": "ripe Aug–Sep",
        "location": "Verdun",
        "notes": "Photographed Aug 4; second patch ~200 m east of the first. Same shrub, loaded.",
        "added": "2026-08-04",
        "photos": [
          "aronia-chokeberry-east-1.jpg",
          "aronia-chokeberry-east-2.jpg"
        ]
      }
    },
    {
      "type": "Feature",
      "geometry": {
        "type": "Point",
        "coordinates": [
          -73.569467,
          45.454144
        ]
      },
      "properties": {
        "name": "Elderberry (Verdun)",
        "category": "berries",
        "species": "common elderberry (Sambucus canadensis)",
        "plant": "elderberry",
        "season": "berries Aug–Sep (cook)",
        "location": "Verdun",
        "notes": "Photographed Aug 4; green unripe berry umbels. Come back when clusters are deep purple-black and drooping — then cook. Never eat raw.",
        "added": "2026-08-04",
        "photos": [
          "elderberry-verdun-1.jpg"
        ]
      }
    },
    {
      "type": "Feature",
      "geometry": {
        "type": "Point",
        "coordinates": [
          -73.568314,
          45.454411
        ]
      },
      "properties": {
        "name": "Red raspberry brambles (Verdun)",
        "category": "berries",
        "species": "red raspberry (Rubus idaeus)",
        "plant": "raspberry",
        "season": "ripe now (Jul–Aug)",
        "location": "Verdun",
        "notes": "Photographed Aug 4; ripe red berries. Brambles run along the path — a second stretch ~75 m south too. Eat on the spot.",
        "added": "2026-08-04",
        "photos": [
          "raspberry-verdun-1.jpg",
          "raspberry-verdun-2.jpg"
        ]
      }
    },
    {
      "type": "Feature",
      "geometry": {
        "type": "Point",
        "coordinates": [
          -73.568344,
          45.45435
        ]
      },
      "properties": {
        "name": "Black currant (Verdun)",
        "category": "berries",
        "species": "black currant (Ribes nigrum, likely garden escape)",
        "plant": "black-currant",
        "season": "ripe now (Jul–Aug)",
        "location": "Verdun",
        "notes": "Photographed Aug 4; glossy black berries in short strings on aromatic maple-lobed leaves, thornless. Right beside the raspberries. Tart — great cooked.",
        "added": "2026-08-04",
        "photos": [
          "black-currant-1.jpg",
          "black-currant-2.jpg"
        ]
      }
    },
    {
      "type": "Feature",
      "geometry": {
        "type": "Point",
        "coordinates": [
          -73.568428,
          45.453244
        ]
      },
      "properties": {
        "name": "Wild rose / rose hips (Verdun)",
        "category": "berries",
        "species": "wild rose (Rosa sp.)",
        "plant": "rose-hips",
        "season": "hips ripen Sep, best after frost",
        "location": "Verdun",
        "notes": "Photographed Aug 4; green immature hips. Return in fall once they turn red-orange and soften — cook & strain for syrup (remove the irritant seed hairs).",
        "added": "2026-08-04",
        "photos": [
          "rose-hips-1.jpg",
          "rose-hips-2.jpg"
        ]
      }
    },
    {
      "type": "Feature",
      "geometry": {
        "type": "Point",
        "coordinates": [
          -73.568236,
          45.450358
        ]
      },
      "properties": {
        "name": "Rowan / Mountain-ash (Verdun)",
        "category": "tree",
        "species": "rowan / European mountain-ash (Sorbus aucuparia)",
        "plant": "rowan",
        "season": "berries Aug–fall; best after first frost, hold on the tree into winter",
        "location": "Verdun",
        "notes": "Photographed Aug 4; second rowan (separate from the LaSalle tree), loaded with flat-topped clusters of orange pomes, pinnate serrated leaflets. Cook-don't-graze: raw is bitter/irritating, cooked (ideally after a frost) makes a tart rowan jelly. High pectin.",
        "added": "2026-08-04",
        "photos": [
          "rowan-verdun-1.jpg",
          "rowan-verdun-2.jpg"
        ]
      }
    },
    {
      "type": "Feature",
      "geometry": {
        "type": "Point",
        "coordinates": [
          -73.564924,
          45.452560
        ]
      },
      "properties": {
        "name": "Red currant (community-garden fence)",
        "category": "berries",
        "species": "red currant (Ribes rubrum)",
        "season": "ripe now (Jul–Aug)",
        "location": "Verdun — outside the community garden, on the outer edge of the fence",
        "notes": "Confirmed in person Aug 4 (iNat lead promoted). Translucent red berries in hanging clusters on lobed maple-like leaves, thornless — growing on the public/outside edge of the community-garden fence, not inside the plot. Eat raw or cook into jelly. Tart.",
        "added": "2026-08-04",
        "photos": []
      }
    },
    {
      "type": "Feature",
      "geometry": {
        "type": "Point",
        "coordinates": [
          -73.566467,
          45.450692
        ]
      },
      "properties": {
        "name": "Chokecherry (Verdun)",
        "category": "berries",
        "species": "chokecherry (Prunus virginiana)",
        "plant": "chokecherry",
        "season": "fruit ripe late Jul–Sep (cook)",
        "location": "Verdun — along the community-garden fence by the path",
        "notes": "Photographed Aug 4; small dark cherries in long drooping racemes (grape-like clusters) on finely-toothed oval leaves. Ripe now. Cook-and-strain only — astringent raw and the pits are cyanogenic; never eat the stones. Makes a deep-red jelly/syrup.",
        "added": "2026-08-04",
        "photos": [
          "chokecherry-1.jpg",
          "chokecherry-2.jpg"
        ]
      }
    }
  ]
}
