{
  "type": "FeatureCollection",
  "name": "scouting-spots",
  "note": "UNVERIFIED scouting leads for 'Quai de la Tortue → Parc Desmarchais', generated from iNaturalist research-grade observations by scripts/inat-scout.py. NOT the source of truth — that is foraging-spots.geojson. Each pin is a lead to go confirm in person; once confirmed, promote it into foraging-spots.geojson.",
  "features": [
    {
      "type": "Feature",
      "id": 386398266,
      "geometry": {
        "type": "Point",
        "coordinates": [
          -73.567263,
          45.449825
        ]
      },
      "properties": {
        "name": "Wild parsnip",
        "species": "Pastinaca sativa",
        "tier": "avoid",
        "notes": "DO NOT TOUCH bare-skinned — sap + sunlight causes burning blisters (phytophotodermatitis). Yellow flat flower umbels, celery-like ridged stem.",
        "source": "inat",
        "inat": "https://www.inaturalist.org/observations/386398266",
        "observed": "2026-07-29",
        "observer": "therapsid74",
        "obscured": false
      }
    },
    {
      "type": "Feature",
      "id": 386395275,
      "geometry": {
        "type": "Point",
        "coordinates": [
          -73.568788,
          45.44802
        ]
      },
      "properties": {
        "name": "Alder buckthorn",
        "species": "Frangula alnus",
        "tier": "avoid",
        "notes": "Toxic laxative berries (red→black). Do not eat.",
        "source": "inat",
        "inat": "https://www.inaturalist.org/observations/386395275",
        "observed": "2026-07-29",
        "observer": "therapsid74",
        "obscured": false
      }
    },
    {
      "type": "Feature",
      "id": 386393853,
      "geometry": {
        "type": "Point",
        "coordinates": [
          -73.567585,
          45.449132
        ]
      },
      "properties": {
        "name": "Alder buckthorn",
        "species": "Frangula alnus",
        "tier": "avoid",
        "notes": "Toxic laxative berries (red→black). Do not eat.",
        "source": "inat",
        "inat": "https://www.inaturalist.org/observations/386393853",
        "observed": "2026-07-29",
        "observer": "therapsid74",
        "obscured": false
      }
    },
    {
      "type": "Feature",
      "id": 386393144,
      "geometry": {
        "type": "Point",
        "coordinates": [
          -73.567174,
          45.449554
        ]
      },
      "properties": {
        "name": "Alder buckthorn",
        "species": "Frangula alnus",
        "tier": "avoid",
        "notes": "Toxic laxative berries (red→black). Do not eat.",
        "source": "inat",
        "inat": "https://www.inaturalist.org/observations/386393144",
        "observed": "2026-07-29",
        "observer": "therapsid74",
        "obscured": false
      }
    },
    {
      "type": "Feature",
      "id": 384076309,
      "geometry": {
        "type": "Point",
        "coordinates": [
          -73.566094,
          45.45075
        ]
      },
      "properties": {
        "name": "Chokecherry",
        "species": "Prunus virginiana",
        "tier": "prep",
        "notes": "Cook only for jelly/syrup — raw fruit is astringent and the seeds are cyanogenic. Never eat the pits.",
        "source": "inat",
        "inat": "https://www.inaturalist.org/observations/384076309",
        "observed": "2026-07-22",
        "observer": "frau_von_nebelung",
        "obscured": false
      }
    },
    {
      "type": "Feature",
      "id": 380427086,
      "geometry": {
        "type": "Point",
        "coordinates": [
          -73.566005,
          45.450965
        ]
      },
      "properties": {
        "name": "Apple",
        "species": "Malus domestica",
        "tier": "snack",
        "notes": "Wild/feral apples — taste one; many roadside trees fruit well.",
        "source": "inat",
        "inat": "https://www.inaturalist.org/observations/380427086",
        "observed": "2026-07-11",
        "observer": "brennanrcohen",
        "obscured": false,
        "plant": "apple"
      }
    },
    {
      "type": "Feature",
      "id": 372668455,
      "geometry": {
        "type": "Point",
        "coordinates": [
          -73.565287,
          45.453125
        ]
      },
      "properties": {
        "name": "Common buckthorn",
        "species": "Rhamnus cathartica",
        "tier": "avoid",
        "notes": "Black berries are a violent purgative — toxic. Learn it: thorn-tipped twigs, 3-5 curved leaf veins. Do not eat.",
        "source": "inat",
        "inat": "https://www.inaturalist.org/observations/372668455",
        "observed": "2026-06-17",
        "observer": "phyleme",
        "obscured": false
      }
    },
    {
      "type": "Feature",
      "id": 372147312,
      "geometry": {
        "type": "Point",
        "coordinates": [
          -73.566257,
          45.450997
        ]
      },
      "properties": {
        "name": "Black walnut",
        "species": "Juglans nigra",
        "tier": "prep",
        "notes": "Husk & cure the nuts (staining!) in fall. Round green husks under the tree.",
        "source": "inat",
        "inat": "https://www.inaturalist.org/observations/372147312",
        "observed": "2026-06-15",
        "observer": "jshcwn",
        "obscured": false
      }
    },
    {
      "type": "Feature",
      "id": 361832372,
      "geometry": {
        "type": "Point",
        "coordinates": [
          -73.568392,
          45.448474
        ]
      },
      "properties": {
        "name": "Red clover",
        "species": "Trifolium pratense",
        "tier": "snack",
        "notes": "Nibble the flower heads or dry for tea. Ubiquitous, safe.",
        "source": "inat",
        "inat": "https://www.inaturalist.org/observations/361832372",
        "observed": "2026-05-03",
        "observer": "brennanrcohen",
        "obscured": false
      }
    },
    {
      "type": "Feature",
      "id": 353040144,
      "geometry": {
        "type": "Point",
        "coordinates": [
          -73.568812,
          45.448181
        ]
      },
      "properties": {
        "name": "Red clover",
        "species": "Trifolium pratense",
        "tier": "snack",
        "notes": "Nibble the flower heads or dry for tea. Ubiquitous, safe.",
        "source": "inat",
        "inat": "https://www.inaturalist.org/observations/353040144",
        "observed": "2026-04-24",
        "observer": "hobbiesera",
        "obscured": false
      }
    },
    {
      "type": "Feature",
      "id": 347802674,
      "geometry": {
        "type": "Point",
        "coordinates": [
          -73.569231,
          45.447548
        ]
      },
      "properties": {
        "name": "Red oak",
        "species": "Quercus rubra",
        "tier": "prep",
        "notes": "Acorns need leaching (cold-water, several changes) to remove tannins, then flour.",
        "source": "inat",
        "inat": "https://www.inaturalist.org/observations/347802674",
        "observed": "2026-03-28",
        "observer": "birderbb",
        "obscured": false
      }
    },
    {
      "type": "Feature",
      "id": 321123966,
      "geometry": {
        "type": "Point",
        "coordinates": [
          -73.567367,
          45.44955
        ]
      },
      "properties": {
        "name": "Common milkweed",
        "species": "Asclepias syriaca",
        "tier": "prep",
        "notes": "Cook shoots / flower buds / young pods (change water). NOT raw. Young shoots resemble toxic dogbane — milkweed has hairy stem + milky sap.",
        "source": "inat",
        "inat": "https://www.inaturalist.org/observations/321123966",
        "observed": "2025-10-15",
        "observer": "benedicte44380",
        "obscured": false
      }
    },
    {
      "type": "Feature",
      "id": 313943414,
      "geometry": {
        "type": "Point",
        "coordinates": [
          -73.567443,
          45.449578
        ]
      },
      "properties": {
        "name": "Common milkweed",
        "species": "Asclepias syriaca",
        "tier": "prep",
        "notes": "Cook shoots / flower buds / young pods (change water). NOT raw. Young shoots resemble toxic dogbane — milkweed has hairy stem + milky sap.",
        "source": "inat",
        "inat": "https://www.inaturalist.org/observations/313943414",
        "observed": "2025-09-14",
        "observer": "jundai",
        "obscured": false
      }
    },
    {
      "type": "Feature",
      "id": 313768018,
      "geometry": {
        "type": "Point",
        "coordinates": [
          -73.564987,
          45.452822
        ]
      },
      "properties": {
        "name": "Common milkweed",
        "species": "Asclepias syriaca",
        "tier": "prep",
        "notes": "Cook shoots / flower buds / young pods (change water). NOT raw. Young shoots resemble toxic dogbane — milkweed has hairy stem + milky sap.",
        "source": "inat",
        "inat": "https://www.inaturalist.org/observations/313768018",
        "observed": "2025-09-13",
        "observer": "marcolivierbeausoleil",
        "obscured": false
      }
    },
    {
      "type": "Feature",
      "id": 310641724,
      "geometry": {
        "type": "Point",
        "coordinates": [
          -73.565068,
          45.452391
        ]
      },
      "properties": {
        "name": "Staghorn sumac",
        "species": "Rhus typhina",
        "tier": "snack",
        "notes": "Steep the red drupe cones in cold water for pink lemonade. No toxic lookalike (poison sumac has white berries, lives in swamps).",
        "source": "inat",
        "inat": "https://www.inaturalist.org/observations/310641724",
        "observed": "2025-08-31",
        "observer": "frederique91857",
        "obscured": false,
        "plant": "staghorn-sumac"
      }
    },
    {
      "type": "Feature",
      "id": 305304954,
      "geometry": {
        "type": "Point",
        "coordinates": [
          -73.565454,
          45.451705
        ]
      },
      "properties": {
        "name": "Common buckthorn",
        "species": "Rhamnus cathartica",
        "tier": "avoid",
        "notes": "Black berries are a violent purgative — toxic. Learn it: thorn-tipped twigs, 3-5 curved leaf veins. Do not eat.",
        "source": "inat",
        "inat": "https://www.inaturalist.org/observations/305304954",
        "observed": "2025-08-10",
        "observer": "therapsid74",
        "obscured": false
      }
    },
    {
      "type": "Feature",
      "id": 298808314,
      "geometry": {
        "type": "Point",
        "coordinates": [
          -73.566544,
          45.450088
        ]
      },
      "properties": {
        "name": "Mugwort",
        "species": "Artemisia vulgaris",
        "tier": "prep",
        "notes": "Bitter aromatic herb — dry young leaves as a poultry seasoning; silver leaf underside.",
        "source": "inat",
        "inat": "https://www.inaturalist.org/observations/298808314",
        "observed": "2025-07-17",
        "observer": "therapsid74",
        "obscured": false
      }
    },
    {
      "type": "Feature",
      "id": 298808120,
      "geometry": {
        "type": "Point",
        "coordinates": [
          -73.566627,
          45.450092
        ]
      },
      "properties": {
        "name": "Common milkweed",
        "species": "Asclepias syriaca",
        "tier": "prep",
        "notes": "Cook shoots / flower buds / young pods (change water). NOT raw. Young shoots resemble toxic dogbane — milkweed has hairy stem + milky sap.",
        "source": "inat",
        "inat": "https://www.inaturalist.org/observations/298808120",
        "observed": "2025-07-17",
        "observer": "therapsid74",
        "obscured": false
      }
    },
    {
      "type": "Feature",
      "id": 298807543,
      "geometry": {
        "type": "Point",
        "coordinates": [
          -73.566586,
          45.450067
        ]
      },
      "properties": {
        "name": "Red clover",
        "species": "Trifolium pratense",
        "tier": "snack",
        "notes": "Nibble the flower heads or dry for tea. Ubiquitous, safe.",
        "source": "inat",
        "inat": "https://www.inaturalist.org/observations/298807543",
        "observed": "2025-07-17",
        "observer": "therapsid74",
        "obscured": false
      }
    },
    {
      "type": "Feature",
      "id": 297190376,
      "geometry": {
        "type": "Point",
        "coordinates": [
          -73.565575,
          45.45195
        ]
      },
      "properties": {
        "name": "Wild carrot",
        "species": "Daucus carota",
        "tier": "caution",
        "notes": "Edible taproot BUT the carrot family has DEADLY lookalikes (poison hemlock, water hemlock). Only forage if 100% certain: hairy stem, carrot smell, single dark central floret. When unsure, don't.",
        "source": "inat",
        "inat": "https://www.inaturalist.org/observations/297190376",
        "observed": "2025-07-11",
        "observer": "karuquebec",
        "obscured": false
      }
    },
    {
      "type": "Feature",
      "id": 295193431,
      "geometry": {
        "type": "Point",
        "coordinates": [
          -73.567627,
          45.449789
        ]
      },
      "properties": {
        "name": "Wild parsnip",
        "species": "Pastinaca sativa",
        "tier": "avoid",
        "notes": "DO NOT TOUCH bare-skinned — sap + sunlight causes burning blisters (phytophotodermatitis). Yellow flat flower umbels, celery-like ridged stem.",
        "source": "inat",
        "inat": "https://www.inaturalist.org/observations/295193431",
        "observed": "2025-07-04",
        "observer": "efslarson",
        "obscured": false
      }
    },
    {
      "type": "Feature",
      "id": 290704399,
      "geometry": {
        "type": "Point",
        "coordinates": [
          -73.565405,
          45.451685
        ]
      },
      "properties": {
        "name": "Common buckthorn",
        "species": "Rhamnus cathartica",
        "tier": "avoid",
        "notes": "Black berries are a violent purgative — toxic. Learn it: thorn-tipped twigs, 3-5 curved leaf veins. Do not eat.",
        "source": "inat",
        "inat": "https://www.inaturalist.org/observations/290704399",
        "observed": "2025-06-18",
        "observer": "therapsid74",
        "obscured": false
      }
    },
    {
      "type": "Feature",
      "id": 289619313,
      "geometry": {
        "type": "Point",
        "coordinates": [
          -73.564955,
          45.452355
        ]
      },
      "properties": {
        "name": "Wild parsnip",
        "species": "Pastinaca sativa",
        "tier": "avoid",
        "notes": "DO NOT TOUCH bare-skinned — sap + sunlight causes burning blisters (phytophotodermatitis). Yellow flat flower umbels, celery-like ridged stem.",
        "source": "inat",
        "inat": "https://www.inaturalist.org/observations/289619313",
        "observed": "2025-06-14",
        "observer": "therapsid74",
        "obscured": false
      }
    },
    {
      "type": "Feature",
      "id": 289602518,
      "geometry": {
        "type": "Point",
        "coordinates": [
          -73.565156,
          45.452125
        ]
      },
      "properties": {
        "name": "Common hackberry",
        "species": "Celtis occidentalis",
        "tier": "snack",
        "notes": "Small sweet date-like drupes on a warty-barked tree; crunch the whole thing.",
        "source": "inat",
        "inat": "https://www.inaturalist.org/observations/289602518",
        "observed": "2025-06-14",
        "observer": "therapsid74",
        "obscured": false
      }
    },
    {
      "type": "Feature",
      "id": 286020873,
      "geometry": {
        "type": "Point",
        "coordinates": [
          -73.565599,
          45.451704
        ]
      },
      "properties": {
        "name": "Common hackberry",
        "species": "Celtis occidentalis",
        "tier": "snack",
        "notes": "Small sweet date-like drupes on a warty-barked tree; crunch the whole thing.",
        "source": "inat",
        "inat": "https://www.inaturalist.org/observations/286020873",
        "observed": "2025-06-01",
        "observer": "therapsid74",
        "obscured": false
      }
    },
    {
      "type": "Feature",
      "id": 284104528,
      "geometry": {
        "type": "Point",
        "coordinates": [
          -73.564912,
          45.452392
        ]
      },
      "properties": {
        "name": "Little-leaf linden",
        "species": "Tilia cordata",
        "tier": "snack",
        "notes": "Young heart-shaped leaves are a mild salad green; flowers for tea.",
        "source": "inat",
        "inat": "https://www.inaturalist.org/observations/284104528",
        "observed": "2025-05-25",
        "observer": "viandemoisie",
        "obscured": false,
        "plant": "linden"
      }
    },
    {
      "type": "Feature",
      "id": 282486555,
      "geometry": {
        "type": "Point",
        "coordinates": [
          -73.569253,
          45.44936
        ]
      },
      "properties": {
        "name": "Common milkweed",
        "species": "Asclepias syriaca",
        "tier": "prep",
        "notes": "Cook shoots / flower buds / young pods (change water). NOT raw. Young shoots resemble toxic dogbane — milkweed has hairy stem + milky sap.",
        "source": "inat",
        "inat": "https://www.inaturalist.org/observations/282486555",
        "observed": "2025-05-19",
        "observer": "francois52096",
        "obscured": false
      }
    },
    {
      "type": "Feature",
      "id": 281625628,
      "geometry": {
        "type": "Point",
        "coordinates": [
          -73.565877,
          45.451377
        ]
      },
      "properties": {
        "name": "Common buckthorn",
        "species": "Rhamnus cathartica",
        "tier": "avoid",
        "notes": "Black berries are a violent purgative — toxic. Learn it: thorn-tipped twigs, 3-5 curved leaf veins. Do not eat.",
        "source": "inat",
        "inat": "https://www.inaturalist.org/observations/281625628",
        "observed": "2025-05-16",
        "observer": "therapsid74",
        "obscured": false
      }
    },
    {
      "type": "Feature",
      "id": 261089875,
      "geometry": {
        "type": "Point",
        "coordinates": [
          -73.569053,
          45.447708
        ]
      },
      "properties": {
        "name": "Guelder-rose",
        "species": "Viburnum opulus",
        "tier": "caution",
        "notes": "Highbush-cranberry-type fruit — edible cooked, mildly toxic & unpleasant raw. Cook into jelly.",
        "source": "inat",
        "inat": "https://www.inaturalist.org/observations/261089875",
        "observed": "2025-02-08",
        "observer": "patrice_dupont",
        "obscured": false
      }
    },
    {
      "type": "Feature",
      "id": 261060997,
      "geometry": {
        "type": "Point",
        "coordinates": [
          -73.565842,
          45.451038
        ]
      },
      "properties": {
        "name": "Staghorn sumac",
        "species": "Rhus typhina",
        "tier": "snack",
        "notes": "Steep the red drupe cones in cold water for pink lemonade. No toxic lookalike (poison sumac has white berries, lives in swamps).",
        "source": "inat",
        "inat": "https://www.inaturalist.org/observations/261060997",
        "observed": "2025-02-08",
        "observer": "patrice_dupont",
        "obscured": false,
        "plant": "staghorn-sumac"
      }
    },
    {
      "type": "Feature",
      "id": 260406345,
      "geometry": {
        "type": "Point",
        "coordinates": [
          -73.56929,
          45.447642
        ]
      },
      "properties": {
        "name": "Red oak",
        "species": "Quercus rubra",
        "tier": "prep",
        "notes": "Acorns need leaching (cold-water, several changes) to remove tannins, then flour.",
        "source": "inat",
        "inat": "https://www.inaturalist.org/observations/260406345",
        "observed": "2025-02-02",
        "observer": "therapsid74",
        "obscured": false
      }
    },
    {
      "type": "Feature",
      "id": 259564007,
      "geometry": {
        "type": "Point",
        "coordinates": [
          -73.566847,
          45.449844
        ]
      },
      "properties": {
        "name": "Red oak",
        "species": "Quercus rubra",
        "tier": "prep",
        "notes": "Acorns need leaching (cold-water, several changes) to remove tannins, then flour.",
        "source": "inat",
        "inat": "https://www.inaturalist.org/observations/259564007",
        "observed": "2025-01-25",
        "observer": "therapsid74",
        "obscured": false
      }
    },
    {
      "type": "Feature",
      "id": 258871458,
      "geometry": {
        "type": "Point",
        "coordinates": [
          -73.565514,
          45.451598
        ]
      },
      "properties": {
        "name": "Little-leaf linden",
        "species": "Tilia cordata",
        "tier": "snack",
        "notes": "Young heart-shaped leaves are a mild salad green; flowers for tea.",
        "source": "inat",
        "inat": "https://www.inaturalist.org/observations/258871458",
        "observed": "2025-01-18",
        "observer": "therapsid74",
        "obscured": false,
        "plant": "linden"
      }
    },
    {
      "type": "Feature",
      "id": 253785082,
      "geometry": {
        "type": "Point",
        "coordinates": [
          -73.569046,
          45.447957
        ]
      },
      "properties": {
        "name": "Bur oak",
        "species": "Quercus macrocarpa",
        "tier": "prep",
        "notes": "Big low-tannin acorns; still leach before use.",
        "source": "inat",
        "inat": "https://www.inaturalist.org/observations/253785082",
        "observed": "2024-12-01",
        "observer": "therapsid74",
        "obscured": false
      }
    },
    {
      "type": "Feature",
      "id": 253790850,
      "geometry": {
        "type": "Point",
        "coordinates": [
          -73.567153,
          45.449603
        ]
      },
      "properties": {
        "name": "Guelder-rose",
        "species": "Viburnum opulus",
        "tier": "caution",
        "notes": "Highbush-cranberry-type fruit — edible cooked, mildly toxic & unpleasant raw. Cook into jelly.",
        "source": "inat",
        "inat": "https://www.inaturalist.org/observations/253790850",
        "observed": "2024-12-01",
        "observer": "therapsid74",
        "obscured": false
      }
    },
    {
      "type": "Feature",
      "id": 253790835,
      "geometry": {
        "type": "Point",
        "coordinates": [
          -73.565843,
          45.45104
        ]
      },
      "properties": {
        "name": "Staghorn sumac",
        "species": "Rhus typhina",
        "tier": "snack",
        "notes": "Steep the red drupe cones in cold water for pink lemonade. No toxic lookalike (poison sumac has white berries, lives in swamps).",
        "source": "inat",
        "inat": "https://www.inaturalist.org/observations/253790835",
        "observed": "2024-12-01",
        "observer": "therapsid74",
        "obscured": false,
        "plant": "staghorn-sumac"
      }
    },
    {
      "type": "Feature",
      "id": 253790782,
      "geometry": {
        "type": "Point",
        "coordinates": [
          -73.565767,
          45.451286
        ]
      },
      "properties": {
        "name": "Little-leaf linden",
        "species": "Tilia cordata",
        "tier": "snack",
        "notes": "Young heart-shaped leaves are a mild salad green; flowers for tea.",
        "source": "inat",
        "inat": "https://www.inaturalist.org/observations/253790782",
        "observed": "2024-12-01",
        "observer": "therapsid74",
        "obscured": false,
        "plant": "linden"
      }
    },
    {
      "type": "Feature",
      "id": 248555493,
      "geometry": {
        "type": "Point",
        "coordinates": [
          -73.565705,
          45.451642
        ]
      },
      "properties": {
        "name": "Basswood (linden)",
        "species": "Tilia americana",
        "tier": "snack",
        "notes": "Same as little-leaf linden — young leaves edible, flowers for tea.",
        "source": "inat",
        "inat": "https://www.inaturalist.org/observations/248555493",
        "observed": "2024-10-19",
        "observer": "patrice_dupont",
        "obscured": false,
        "plant": "linden"
      }
    },
    {
      "type": "Feature",
      "id": 248554735,
      "geometry": {
        "type": "Point",
        "coordinates": [
          -73.565437,
          45.45168
        ]
      },
      "properties": {
        "name": "Common buckthorn",
        "species": "Rhamnus cathartica",
        "tier": "avoid",
        "notes": "Black berries are a violent purgative — toxic. Learn it: thorn-tipped twigs, 3-5 curved leaf veins. Do not eat.",
        "source": "inat",
        "inat": "https://www.inaturalist.org/observations/248554735",
        "observed": "2024-10-19",
        "observer": "patrice_dupont",
        "obscured": false
      }
    },
    {
      "type": "Feature",
      "id": 248331762,
      "geometry": {
        "type": "Point",
        "coordinates": [
          -73.565225,
          45.451908
        ]
      },
      "properties": {
        "name": "Little-leaf linden",
        "species": "Tilia cordata",
        "tier": "snack",
        "notes": "Young heart-shaped leaves are a mild salad green; flowers for tea.",
        "source": "inat",
        "inat": "https://www.inaturalist.org/observations/248331762",
        "observed": "2024-10-18",
        "observer": "patrice_dupont",
        "obscured": false,
        "plant": "linden"
      }
    },
    {
      "type": "Feature",
      "id": 248329088,
      "geometry": {
        "type": "Point",
        "coordinates": [
          -73.565225,
          45.451992
        ]
      },
      "properties": {
        "name": "Little-leaf linden",
        "species": "Tilia cordata",
        "tier": "snack",
        "notes": "Young heart-shaped leaves are a mild salad green; flowers for tea.",
        "source": "inat",
        "inat": "https://www.inaturalist.org/observations/248329088",
        "observed": "2024-10-18",
        "observer": "patrice_dupont",
        "obscured": false,
        "plant": "linden"
      }
    },
    {
      "type": "Feature",
      "id": 238636086,
      "geometry": {
        "type": "Point",
        "coordinates": [
          -73.565827,
          45.453855
        ]
      },
      "properties": {
        "name": "Yellow nutsedge",
        "species": "Cyperus esculentus",
        "tier": "prep",
        "notes": "Dig the tiny tubers (tigernuts) — sweet, nutty; triangular stem.",
        "source": "inat",
        "inat": "https://www.inaturalist.org/observations/238636086",
        "observed": "2024-08-29",
        "observer": "therapsid74",
        "obscured": false
      }
    },
    {
      "type": "Feature",
      "id": 236772098,
      "geometry": {
        "type": "Point",
        "coordinates": [
          -73.569564,
          45.447291
        ]
      },
      "properties": {
        "name": "Guelder-rose",
        "species": "Viburnum opulus",
        "tier": "caution",
        "notes": "Highbush-cranberry-type fruit — edible cooked, mildly toxic & unpleasant raw. Cook into jelly.",
        "source": "inat",
        "inat": "https://www.inaturalist.org/observations/236772098",
        "observed": "2024-08-19",
        "observer": "sanguinaria-canadensis",
        "obscured": false
      }
    },
    {
      "type": "Feature",
      "id": 236185243,
      "geometry": {
        "type": "Point",
        "coordinates": [
          -73.568956,
          45.448048
        ]
      },
      "properties": {
        "name": "Common milkweed",
        "species": "Asclepias syriaca",
        "tier": "prep",
        "notes": "Cook shoots / flower buds / young pods (change water). NOT raw. Young shoots resemble toxic dogbane — milkweed has hairy stem + milky sap.",
        "source": "inat",
        "inat": "https://www.inaturalist.org/observations/236185243",
        "observed": "2024-08-16",
        "observer": "therapsid74",
        "obscured": false
      }
    },
    {
      "type": "Feature",
      "id": 236185103,
      "geometry": {
        "type": "Point",
        "coordinates": [
          -73.568858,
          45.448141
        ]
      },
      "properties": {
        "name": "Common milkweed",
        "species": "Asclepias syriaca",
        "tier": "prep",
        "notes": "Cook shoots / flower buds / young pods (change water). NOT raw. Young shoots resemble toxic dogbane — milkweed has hairy stem + milky sap.",
        "source": "inat",
        "inat": "https://www.inaturalist.org/observations/236185103",
        "observed": "2024-08-16",
        "observer": "therapsid74",
        "obscured": false
      }
    },
    {
      "type": "Feature",
      "id": 236184719,
      "geometry": {
        "type": "Point",
        "coordinates": [
          -73.568624,
          45.448374
        ]
      },
      "properties": {
        "name": "Common milkweed",
        "species": "Asclepias syriaca",
        "tier": "prep",
        "notes": "Cook shoots / flower buds / young pods (change water). NOT raw. Young shoots resemble toxic dogbane — milkweed has hairy stem + milky sap.",
        "source": "inat",
        "inat": "https://www.inaturalist.org/observations/236184719",
        "observed": "2024-08-16",
        "observer": "therapsid74",
        "obscured": false
      }
    },
    {
      "type": "Feature",
      "id": 231430733,
      "geometry": {
        "type": "Point",
        "coordinates": [
          -73.567139,
          45.449765
        ]
      },
      "properties": {
        "name": "Wild parsnip",
        "species": "Pastinaca sativa",
        "tier": "avoid",
        "notes": "DO NOT TOUCH bare-skinned — sap + sunlight causes burning blisters (phytophotodermatitis). Yellow flat flower umbels, celery-like ridged stem.",
        "source": "inat",
        "inat": "https://www.inaturalist.org/observations/231430733",
        "observed": "2024-07-23",
        "observer": "therapsid74",
        "obscured": false
      }
    },
    {
      "type": "Feature",
      "id": 229070778,
      "geometry": {
        "type": "Point",
        "coordinates": [
          -73.569302,
          45.448227
        ]
      },
      "properties": {
        "name": "Wild parsnip",
        "species": "Pastinaca sativa",
        "tier": "avoid",
        "notes": "DO NOT TOUCH bare-skinned — sap + sunlight causes burning blisters (phytophotodermatitis). Yellow flat flower umbels, celery-like ridged stem.",
        "source": "inat",
        "inat": "https://www.inaturalist.org/observations/229070778",
        "observed": "2024-07-13",
        "observer": "viandemoisie",
        "obscured": false
      }
    },
    {
      "type": "Feature",
      "id": 227551199,
      "geometry": {
        "type": "Point",
        "coordinates": [
          -73.56893,
          45.453904
        ]
      },
      "properties": {
        "name": "Yarrow",
        "species": "Achillea millefolium",
        "tier": "caution",
        "notes": "Feathery leaves for tea/medicinal. Its ferny foliage can be confused with poison hemlock before flowering — confirm the flat white flower clusters + strong scent.",
        "source": "inat",
        "inat": "https://www.inaturalist.org/observations/227551199",
        "observed": "2024-07-06",
        "observer": "jmcrawford",
        "obscured": false
      }
    },
    {
      "type": "Feature",
      "id": 228496765,
      "geometry": {
        "type": "Point",
        "coordinates": [
          -73.568742,
          45.448194
        ]
      },
      "properties": {
        "name": "Bur oak",
        "species": "Quercus macrocarpa",
        "tier": "prep",
        "notes": "Big low-tannin acorns; still leach before use.",
        "source": "inat",
        "inat": "https://www.inaturalist.org/observations/228496765",
        "observed": "2024-07-03",
        "observer": "therapsid74",
        "obscured": false
      }
    },
    {
      "type": "Feature",
      "id": 228328902,
      "geometry": {
        "type": "Point",
        "coordinates": [
          -73.568319,
          45.448564
        ]
      },
      "properties": {
        "name": "Staghorn sumac",
        "species": "Rhus typhina",
        "tier": "snack",
        "notes": "Steep the red drupe cones in cold water for pink lemonade. No toxic lookalike (poison sumac has white berries, lives in swamps).",
        "source": "inat",
        "inat": "https://www.inaturalist.org/observations/228328902",
        "observed": "2024-07-03",
        "observer": "therapsid74",
        "obscured": false,
        "plant": "staghorn-sumac"
      }
    },
    {
      "type": "Feature",
      "id": 226570247,
      "geometry": {
        "type": "Point",
        "coordinates": [
          -73.566467,
          45.450508
        ]
      },
      "properties": {
        "name": "Staghorn sumac",
        "species": "Rhus typhina",
        "tier": "snack",
        "notes": "Steep the red drupe cones in cold water for pink lemonade. No toxic lookalike (poison sumac has white berries, lives in swamps).",
        "source": "inat",
        "inat": "https://www.inaturalist.org/observations/226570247",
        "observed": "2024-07-01",
        "observer": "ghi",
        "obscured": false,
        "plant": "staghorn-sumac"
      }
    },
    {
      "type": "Feature",
      "id": 226575208,
      "geometry": {
        "type": "Point",
        "coordinates": [
          -73.567117,
          45.449833
        ]
      },
      "properties": {
        "name": "Wild parsnip",
        "species": "Pastinaca sativa",
        "tier": "avoid",
        "notes": "DO NOT TOUCH bare-skinned — sap + sunlight causes burning blisters (phytophotodermatitis). Yellow flat flower umbels, celery-like ridged stem.",
        "source": "inat",
        "inat": "https://www.inaturalist.org/observations/226575208",
        "observed": "2024-07-01",
        "observer": "ghi",
        "obscured": false
      }
    },
    {
      "type": "Feature",
      "id": 226580879,
      "geometry": {
        "type": "Point",
        "coordinates": [
          -73.56575,
          45.45152
        ]
      },
      "properties": {
        "name": "Cow parsley",
        "species": "Anthriscus sylvestris",
        "tier": "avoid",
        "notes": "White umbel — the family that includes deadly poison hemlock. Not worth the risk; learn it as a 'do-not-touch' benchmark.",
        "source": "inat",
        "inat": "https://www.inaturalist.org/observations/226580879",
        "observed": "2024-07-01",
        "observer": "ghi",
        "obscured": false
      }
    },
    {
      "type": "Feature",
      "id": 226579113,
      "geometry": {
        "type": "Point",
        "coordinates": [
          -73.565483,
          45.451958
        ]
      },
      "properties": {
        "name": "Wild carrot",
        "species": "Daucus carota",
        "tier": "caution",
        "notes": "Edible taproot BUT the carrot family has DEADLY lookalikes (poison hemlock, water hemlock). Only forage if 100% certain: hairy stem, carrot smell, single dark central floret. When unsure, don't.",
        "source": "inat",
        "inat": "https://www.inaturalist.org/observations/226579113",
        "observed": "2024-07-01",
        "observer": "ghi",
        "obscured": false
      }
    },
    {
      "type": "Feature",
      "id": 225115197,
      "geometry": {
        "type": "Point",
        "coordinates": [
          -73.566912,
          45.452737
        ]
      },
      "properties": {
        "name": "Yarrow",
        "species": "Achillea millefolium",
        "tier": "caution",
        "notes": "Feathery leaves for tea/medicinal. Its ferny foliage can be confused with poison hemlock before flowering — confirm the flat white flower clusters + strong scent.",
        "source": "inat",
        "inat": "https://www.inaturalist.org/observations/225115197",
        "observed": "2024-06-25",
        "observer": "brennanrcohen",
        "obscured": false
      }
    },
    {
      "type": "Feature",
      "id": 221923028,
      "geometry": {
        "type": "Point",
        "coordinates": [
          -73.565186,
          45.452019
        ]
      },
      "properties": {
        "name": "Yellow iris",
        "species": "Iris pseudacorus",
        "tier": "avoid",
        "notes": "Waterside yellow flag — all parts toxic/irritant. Do not forage.",
        "source": "inat",
        "inat": "https://www.inaturalist.org/observations/221923028",
        "observed": "2024-06-09",
        "observer": "therapsid74",
        "obscured": false
      }
    },
    {
      "type": "Feature",
      "id": 215487556,
      "geometry": {
        "type": "Point",
        "coordinates": [
          -73.565185,
          45.452928
        ]
      },
      "properties": {
        "name": "Garlic mustard",
        "species": "Alliaria petiolata",
        "tier": "snack",
        "notes": "Invasive — forage freely. Crush a leaf: garlic smell confirms it. Raw in pesto/salad.",
        "source": "inat",
        "inat": "https://www.inaturalist.org/observations/215487556",
        "observed": "2024-05-12",
        "observer": "viandemoisie",
        "obscured": false
      }
    },
    {
      "type": "Feature",
      "id": 215326707,
      "geometry": {
        "type": "Point",
        "coordinates": [
          -73.565274,
          45.452609
        ]
      },
      "properties": {
        "name": "Red currant",
        "species": "Ribes rubrum",
        "tier": "snack",
        "notes": "Translucent red berries in hanging clusters, eat raw or jelly.",
        "source": "inat",
        "inat": "https://www.inaturalist.org/observations/215326707",
        "observed": "2024-05-12",
        "observer": "viandemoisie",
        "obscured": false
      }
    },
    {
      "type": "Feature",
      "id": 215381481,
      "geometry": {
        "type": "Point",
        "coordinates": [
          -73.565223,
          45.452402
        ]
      },
      "properties": {
        "name": "Garlic mustard",
        "species": "Alliaria petiolata",
        "tier": "snack",
        "notes": "Invasive — forage freely. Crush a leaf: garlic smell confirms it. Raw in pesto/salad.",
        "source": "inat",
        "inat": "https://www.inaturalist.org/observations/215381481",
        "observed": "2024-05-07",
        "observer": "therapsid74",
        "obscured": false
      }
    },
    {
      "type": "Feature",
      "id": 199043172,
      "geometry": {
        "type": "Point",
        "coordinates": [
          -73.566644,
          45.450157
        ]
      },
      "properties": {
        "name": "Staghorn sumac",
        "species": "Rhus typhina",
        "tier": "snack",
        "notes": "Steep the red drupe cones in cold water for pink lemonade. No toxic lookalike (poison sumac has white berries, lives in swamps).",
        "source": "inat",
        "inat": "https://www.inaturalist.org/observations/199043172",
        "observed": "2024-02-11",
        "observer": "therapsid74",
        "obscured": false,
        "plant": "staghorn-sumac"
      }
    },
    {
      "type": "Feature",
      "id": 199043053,
      "geometry": {
        "type": "Point",
        "coordinates": [
          -73.56631,
          45.450637
        ]
      },
      "properties": {
        "name": "Staghorn sumac",
        "species": "Rhus typhina",
        "tier": "snack",
        "notes": "Steep the red drupe cones in cold water for pink lemonade. No toxic lookalike (poison sumac has white berries, lives in swamps).",
        "source": "inat",
        "inat": "https://www.inaturalist.org/observations/199043053",
        "observed": "2024-02-11",
        "observer": "therapsid74",
        "obscured": false,
        "plant": "staghorn-sumac"
      }
    },
    {
      "type": "Feature",
      "id": 199042673,
      "geometry": {
        "type": "Point",
        "coordinates": [
          -73.56568,
          45.451524
        ]
      },
      "properties": {
        "name": "Staghorn sumac",
        "species": "Rhus typhina",
        "tier": "snack",
        "notes": "Steep the red drupe cones in cold water for pink lemonade. No toxic lookalike (poison sumac has white berries, lives in swamps).",
        "source": "inat",
        "inat": "https://www.inaturalist.org/observations/199042673",
        "observed": "2024-02-11",
        "observer": "therapsid74",
        "obscured": false,
        "plant": "staghorn-sumac"
      }
    },
    {
      "type": "Feature",
      "id": 195681094,
      "geometry": {
        "type": "Point",
        "coordinates": [
          -73.569765,
          45.446739
        ]
      },
      "properties": {
        "name": "Rowan",
        "species": "Sorbus aucuparia",
        "tier": "prep",
        "notes": "Cook the orange berries into jelly after first frost; bitter & mildly purgative raw.",
        "source": "inat",
        "inat": "https://www.inaturalist.org/observations/195681094",
        "observed": "2024-01-03",
        "observer": "therapsid74",
        "obscured": false,
        "plant": "rowan"
      }
    },
    {
      "type": "Feature",
      "id": 181426178,
      "geometry": {
        "type": "Point",
        "coordinates": [
          -73.564869,
          45.452423
        ]
      },
      "properties": {
        "name": "Riverbank grape",
        "species": "Vitis riparia",
        "tier": "caution",
        "notes": "Grapes for jelly, leaves for dolmas. Lookalike: moonseed (toxic) — grapes have tendrils + several seeds; moonseed has one crescent seed & no tendrils.",
        "source": "inat",
        "inat": "https://www.inaturalist.org/observations/181426178",
        "observed": "2023-09-02",
        "observer": "viandemoisie",
        "obscured": false
      }
    },
    {
      "type": "Feature",
      "id": 183242783,
      "geometry": {
        "type": "Point",
        "coordinates": [
          -73.564825,
          45.452534
        ]
      },
      "properties": {
        "name": "Riverbank grape",
        "species": "Vitis riparia",
        "tier": "caution",
        "notes": "Grapes for jelly, leaves for dolmas. Lookalike: moonseed (toxic) — grapes have tendrils + several seeds; moonseed has one crescent seed & no tendrils.",
        "source": "inat",
        "inat": "https://www.inaturalist.org/observations/183242783",
        "observed": "2023-09-02",
        "observer": "viandemoisie",
        "obscured": false
      }
    },
    {
      "type": "Feature",
      "id": 179170731,
      "geometry": {
        "type": "Point",
        "coordinates": [
          -73.565983,
          45.454628
        ]
      },
      "properties": {
        "name": "White clover",
        "species": "Trifolium repens",
        "tier": "snack",
        "notes": "Flowers & young leaves edible raw; better cooked in quantity.",
        "source": "inat",
        "inat": "https://www.inaturalist.org/observations/179170731",
        "observed": "2023-08-19",
        "observer": "therapsid74",
        "obscured": false
      }
    },
    {
      "type": "Feature",
      "id": 177210156,
      "geometry": {
        "type": "Point",
        "coordinates": [
          -73.569542,
          45.446844
        ]
      },
      "properties": {
        "name": "Chokecherry",
        "species": "Prunus virginiana",
        "tier": "prep",
        "notes": "Cook only for jelly/syrup — raw fruit is astringent and the seeds are cyanogenic. Never eat the pits.",
        "source": "inat",
        "inat": "https://www.inaturalist.org/observations/177210156",
        "observed": "2023-08-05",
        "observer": "therapsid74",
        "obscured": false
      }
    },
    {
      "type": "Feature",
      "id": 176838286,
      "geometry": {
        "type": "Point",
        "coordinates": [
          -73.567559,
          45.449222
        ]
      },
      "properties": {
        "name": "St. John's wort",
        "species": "Hypericum perforatum",
        "tier": "caution",
        "notes": "Medicinal (not food); photosensitizing and interacts with many meds. Learn it, harvest sparingly.",
        "source": "inat",
        "inat": "https://www.inaturalist.org/observations/176838286",
        "observed": "2023-08-05",
        "observer": "viandemoisie",
        "obscured": false
      }
    },
    {
      "type": "Feature",
      "id": 176839477,
      "geometry": {
        "type": "Point",
        "coordinates": [
          -73.56728,
          45.449309
        ]
      },
      "properties": {
        "name": "Chicory",
        "species": "Cichorium intybus",
        "tier": "snack",
        "notes": "Young leaves (bitter) in salad; roast the root as a coffee sub. Sky-blue flowers confirm ID.",
        "source": "inat",
        "inat": "https://www.inaturalist.org/observations/176839477",
        "observed": "2023-08-05",
        "observer": "viandemoisie",
        "obscured": false,
        "plant": "chicory"
      }
    },
    {
      "type": "Feature",
      "id": 176862762,
      "geometry": {
        "type": "Point",
        "coordinates": [
          -73.565431,
          45.451984
        ]
      },
      "properties": {
        "name": "Wild carrot",
        "species": "Daucus carota",
        "tier": "caution",
        "notes": "Edible taproot BUT the carrot family has DEADLY lookalikes (poison hemlock, water hemlock). Only forage if 100% certain: hairy stem, carrot smell, single dark central floret. When unsure, don't.",
        "source": "inat",
        "inat": "https://www.inaturalist.org/observations/176862762",
        "observed": "2023-08-05",
        "observer": "viandemoisie",
        "obscured": false
      }
    },
    {
      "type": "Feature",
      "id": 174635432,
      "geometry": {
        "type": "Point",
        "coordinates": [
          -73.56738,
          45.451192
        ]
      },
      "properties": {
        "name": "Chokecherry",
        "species": "Prunus virginiana",
        "tier": "prep",
        "notes": "Cook only for jelly/syrup — raw fruit is astringent and the seeds are cyanogenic. Never eat the pits.",
        "source": "inat",
        "inat": "https://www.inaturalist.org/observations/174635432",
        "observed": "2023-07-23",
        "observer": "viandemoisie",
        "obscured": false
      }
    },
    {
      "type": "Feature",
      "id": 141312662,
      "geometry": {
        "type": "Point",
        "coordinates": [
          -73.565887,
          45.45098
        ]
      },
      "properties": {
        "name": "Chicory",
        "species": "Cichorium intybus",
        "tier": "snack",
        "notes": "Young leaves (bitter) in salad; roast the root as a coffee sub. Sky-blue flowers confirm ID.",
        "source": "inat",
        "inat": "https://www.inaturalist.org/observations/141312662",
        "observed": "2022-10-19",
        "observer": "fendabenda",
        "obscured": false,
        "plant": "chicory"
      }
    },
    {
      "type": "Feature",
      "id": 197245819,
      "geometry": {
        "type": "Point",
        "coordinates": [
          -73.569401,
          45.454533
        ]
      },
      "properties": {
        "name": "Red clover",
        "species": "Trifolium pratense",
        "tier": "snack",
        "notes": "Nibble the flower heads or dry for tea. Ubiquitous, safe.",
        "source": "inat",
        "inat": "https://www.inaturalist.org/observations/197245819",
        "observed": "2022-09-15",
        "observer": "therapsid74",
        "obscured": false
      }
    },
    {
      "type": "Feature",
      "id": 197246033,
      "geometry": {
        "type": "Point",
        "coordinates": [
          -73.569498,
          45.454561
        ]
      },
      "properties": {
        "name": "Pineappleweed",
        "species": "Matricaria discoidea",
        "tier": "snack",
        "notes": "Cone-shaped flowerheads smell of pineapple when crushed; steep for tea.",
        "source": "inat",
        "inat": "https://www.inaturalist.org/observations/197246033",
        "observed": "2022-09-10",
        "observer": "therapsid74",
        "obscured": false
      }
    },
    {
      "type": "Feature",
      "id": 130045664,
      "geometry": {
        "type": "Point",
        "coordinates": [
          -73.568076,
          45.449
        ]
      },
      "properties": {
        "name": "Wild carrot",
        "species": "Daucus carota",
        "tier": "caution",
        "notes": "Edible taproot BUT the carrot family has DEADLY lookalikes (poison hemlock, water hemlock). Only forage if 100% certain: hairy stem, carrot smell, single dark central floret. When unsure, don't.",
        "source": "inat",
        "inat": "https://www.inaturalist.org/observations/130045664",
        "observed": "2022-08-08",
        "observer": "yoguilours",
        "obscured": false
      }
    },
    {
      "type": "Feature",
      "id": 127906860,
      "geometry": {
        "type": "Point",
        "coordinates": [
          -73.566844,
          45.449647
        ]
      },
      "properties": {
        "name": "Chokecherry",
        "species": "Prunus virginiana",
        "tier": "prep",
        "notes": "Cook only for jelly/syrup — raw fruit is astringent and the seeds are cyanogenic. Never eat the pits.",
        "source": "inat",
        "inat": "https://www.inaturalist.org/observations/127906860",
        "observed": "2022-07-25",
        "observer": "agh_bbs",
        "obscured": false
      }
    },
    {
      "type": "Feature",
      "id": 124159606,
      "geometry": {
        "type": "Point",
        "coordinates": [
          -73.569596,
          45.454137
        ]
      },
      "properties": {
        "name": "Hawthorn",
        "species": "Crataegus sp.",
        "tier": "snack",
        "notes": "Eat the red haws off the tree (spit the seeds — don't chew them). Thorns + lobed leaves.",
        "source": "inat",
        "inat": "https://www.inaturalist.org/observations/124159606",
        "observed": "2022-06-30",
        "observer": "therapsid74",
        "obscured": false
      }
    },
    {
      "type": "Feature",
      "id": 121868438,
      "geometry": {
        "type": "Point",
        "coordinates": [
          -73.569395,
          45.454236
        ]
      },
      "properties": {
        "name": "Common hackberry",
        "species": "Celtis occidentalis",
        "tier": "snack",
        "notes": "Small sweet date-like drupes on a warty-barked tree; crunch the whole thing.",
        "source": "inat",
        "inat": "https://www.inaturalist.org/observations/121868438",
        "observed": "2022-06-15",
        "observer": "therapsid74",
        "obscured": false
      }
    },
    {
      "type": "Feature",
      "id": 117886579,
      "geometry": {
        "type": "Point",
        "coordinates": [
          -73.569798,
          45.446977
        ]
      },
      "properties": {
        "name": "Burdock",
        "species": "Arctium sp.",
        "tier": "prep",
        "notes": "Dig first-year taproot (gobo); peel & cook. Big rhubarb-like basal leaves.",
        "source": "inat",
        "inat": "https://www.inaturalist.org/observations/117886579",
        "observed": "2022-05-20",
        "observer": "telusjennk",
        "obscured": false
      }
    },
    {
      "type": "Feature",
      "id": 101151251,
      "geometry": {
        "type": "Point",
        "coordinates": [
          -73.566497,
          45.450638
        ]
      },
      "properties": {
        "name": "Bittersweet nightshade",
        "species": "Solanum dulcamara",
        "tier": "avoid",
        "notes": "Red egg-shaped berries + purple/yellow flowers — toxic. Do not eat.",
        "source": "inat",
        "inat": "https://www.inaturalist.org/observations/101151251",
        "observed": "2021-11-07",
        "observer": "bana1",
        "obscured": false
      }
    },
    {
      "type": "Feature",
      "id": 61700113,
      "geometry": {
        "type": "Point",
        "coordinates": [
          -73.568156,
          45.448584
        ]
      },
      "properties": {
        "name": "Wild carrot",
        "species": "Daucus carota",
        "tier": "caution",
        "notes": "Edible taproot BUT the carrot family has DEADLY lookalikes (poison hemlock, water hemlock). Only forage if 100% certain: hairy stem, carrot smell, single dark central floret. When unsure, don't.",
        "source": "inat",
        "inat": "https://www.inaturalist.org/observations/61700113",
        "observed": "2020-10-04",
        "observer": "michel_jacques",
        "obscured": false
      }
    },
    {
      "type": "Feature",
      "id": 61699090,
      "geometry": {
        "type": "Point",
        "coordinates": [
          -73.566905,
          45.449732
        ]
      },
      "properties": {
        "name": "Red clover",
        "species": "Trifolium pratense",
        "tier": "snack",
        "notes": "Nibble the flower heads or dry for tea. Ubiquitous, safe.",
        "source": "inat",
        "inat": "https://www.inaturalist.org/observations/61699090",
        "observed": "2020-10-04",
        "observer": "michel_jacques",
        "obscured": false
      }
    },
    {
      "type": "Feature",
      "id": 61698207,
      "geometry": {
        "type": "Point",
        "coordinates": [
          -73.566958,
          45.449857
        ]
      },
      "properties": {
        "name": "Red clover",
        "species": "Trifolium pratense",
        "tier": "snack",
        "notes": "Nibble the flower heads or dry for tea. Ubiquitous, safe.",
        "source": "inat",
        "inat": "https://www.inaturalist.org/observations/61698207",
        "observed": "2020-10-04",
        "observer": "michel_jacques",
        "obscured": false
      }
    },
    {
      "type": "Feature",
      "id": 60226616,
      "geometry": {
        "type": "Point",
        "coordinates": [
          -73.570139,
          45.447427
        ]
      },
      "properties": {
        "name": "Common buckthorn",
        "species": "Rhamnus cathartica",
        "tier": "avoid",
        "notes": "Black berries are a violent purgative — toxic. Learn it: thorn-tipped twigs, 3-5 curved leaf veins. Do not eat.",
        "source": "inat",
        "inat": "https://www.inaturalist.org/observations/60226616",
        "observed": "2020-09-20",
        "observer": "nchoy98",
        "obscured": false
      }
    },
    {
      "type": "Feature",
      "id": 48952796,
      "geometry": {
        "type": "Point",
        "coordinates": [
          -73.566716,
          45.450185
        ]
      },
      "properties": {
        "name": "Red clover",
        "species": "Trifolium pratense",
        "tier": "snack",
        "notes": "Nibble the flower heads or dry for tea. Ubiquitous, safe.",
        "source": "inat",
        "inat": "https://www.inaturalist.org/observations/48952796",
        "observed": "2020-06-08",
        "observer": "ashlow",
        "obscured": false
      }
    },
    {
      "type": "Feature",
      "id": 48952450,
      "geometry": {
        "type": "Point",
        "coordinates": [
          -73.566432,
          45.450819
        ]
      },
      "properties": {
        "name": "Common buckthorn",
        "species": "Rhamnus cathartica",
        "tier": "avoid",
        "notes": "Black berries are a violent purgative — toxic. Learn it: thorn-tipped twigs, 3-5 curved leaf veins. Do not eat.",
        "source": "inat",
        "inat": "https://www.inaturalist.org/observations/48952450",
        "observed": "2020-06-08",
        "observer": "ashlow",
        "obscured": false
      }
    },
    {
      "type": "Feature",
      "id": 260258451,
      "geometry": {
        "type": "Point",
        "coordinates": [
          -73.569093,
          45.454199
        ]
      },
      "properties": {
        "name": "Chokecherry",
        "species": "Prunus virginiana",
        "tier": "prep",
        "notes": "Cook only for jelly/syrup — raw fruit is astringent and the seeds are cyanogenic. Never eat the pits.",
        "source": "inat",
        "inat": "https://www.inaturalist.org/observations/260258451",
        "observed": "2019-05-29",
        "observer": "therapsid74",
        "obscured": false
      }
    }
  ]
}
